[{"OBJECT_NAME":"STARLINK-4532","OBJECT_ID":"2022-097AN","EPOCH":"2026-03-09T12:36:53.688960","MEAN_MOTION":15.08845498,"ECCENTRICITY":0.0001025,"INCLINATION":53.2168,"RA_OF_ASC_NODE":114.8593,"ARG_OF_PERICENTER":73.1914,"MEAN_ANOMALY":286.9191,"EPHEMERIS_TYPE":0,"CLASSIFICATION_TYPE":"U","NORAD_CAT_ID":53424,"ELEMENT_SET_NO":999,"REV_AT_EPOCH":19862,"BSTAR":-0.00020065,"MEAN_MOTION_DOT":-3.48e-5,"MEAN_MOTION_DDOT":0},{"OBJECT_NAME":"CZ-6A DEB","OBJECT_ID":"2022-151TF","EPOCH":"2026-03-09T20:10:56.828064","MEAN_MOTION":14.824189,"ECCENTRICITY":0.01303169,"INCLINATION":98.7184,"RA_OF_ASC_NODE":180.8188,"ARG_OF_PERICENTER":97.1353,"MEAN_ANOMALY":264.4696,"EPHEMERIS_TYPE":0,"CLASSIFICATION_TYPE":"U","NORAD_CAT_ID":54966,"ELEMENT_SET_NO":999,"REV_AT_EPOCH":17789,"BSTAR":0.0010552869,"MEAN_MOTION_DOT":9.753e-5,"MEAN_MOTION_DDOT":0}]
